NORAD_CAT_ID,OBJECT_NAME,OBJECT_TYPE,EPOCH,MEAN_MOTION,ECCENTRICITY,INCLINATION,RA_OF_ASC_NODE,ARG_OF_PERICENTER,MEAN_ANOMALY,BSTAR,MEAN_MOTION_DOT,MEAN_MOTION_DDOT,TLE_LINE0,TLE_LINE1,TLE_LINE2,SEMIMAJOR_AXIS,PERIOD,APOGEE,PERIGEE,DECAYED
56487.0,STARLINK-6196,PAYLOAD,2023-07-12 19:01:54,15.6992552,0.0003507,69.9984,67.9715,265.7598,94.3197,-2.5814e-06,-5.23e-06,0.0,0 STARLINK-6196,1 56487U 23064AR  23193.79299219 -.00000523  00000-0 -25814-5 0  9998,2 56487  69.9984  67.9715 0003507 265.7598  94.3197 15.69925520 10276,6737.247,91.724,361.475,356.749,0.0
56487.0,STARLINK-6196,PAYLOAD,2023-07-13 17:58:10,15.69939348,0.0004171,69.998,65.2828,281.4067,78.666,2.0001e-05,2.194e-05,0.0,0 STARLINK-6196,1 56487U 23064AR  23194.74872906  .00002194  00000-0  20001-4 0  9990,2 56487  69.9980  65.2828 0004171 281.4067  78.6660 15.69939348 10422,6737.208,91.723,361.883,356.262,0.0
56487.0,STARLINK-6196,PAYLOAD,2023-07-14 16:54:28,15.69925407,0.0003617,69.997,62.5956,273.6358,86.4424,2.833e-06,1.28e-06,0.0,0 STARLINK-6196,1 56487U 23064AR  23195.70449322  .00000128  00000-0  28330-5 0  9998,2 56487  69.9970  62.5956 0003617 273.6358  86.4424 15.69925407 10575,6737.247,91.724,361.549,356.676,0.0
56487.0,STARLINK-6196,PAYLOAD,2023-07-15 17:22:30,15.69919722,0.0003522,69.9976,59.729,269.9973,90.0819,6.9136e-06,6.18e-06,0.0,0 STARLINK-6196,1 56487U 23064AR  23196.72396416  .00000618  00000-0  69136-5 0  9999,2 56487  69.9976  59.7290 0003522 269.9973  90.0819 15.69919722 10736,6737.264,91.724,361.502,356.756,0.0
56487.0,STARLINK-6196,PAYLOAD,2023-07-16 17:50:31,15.69927095,0.0003355,69.9982,56.8619,264.998,95.0833,7.5708e-06,6.98e-06,0.0,0 STARLINK-6196,1 56487U 23064AR  23197.74342553  .00000698  00000-0  75708-5 0  9995,2 56487  69.9982  56.8619 0003355 264.9980  95.0833 15.69927095 10893,6737.243,91.724,361.368,356.847,0.0
56487.0,STARLINK-6196,PAYLOAD,2023-07-17 18:18:33,15.69930298,0.0003667,69.9994,53.9957,269.9809,90.0966,1.9848e-05,2.175e-05,0.0,0 STARLINK-6196,1 56487U 23064AR  23198.76288980  .00002175  00000-0  19848-4 0  9995,2 56487  69.9994  53.9957 0003667 269.9809  90.0966 15.69930298 11050,6737.233,91.724,361.569,356.628,0.0
56487.0,STARLINK-6196,PAYLOAD,2023-07-18 00:25:34,15.69926021,0.0004061,69.9972,53.2794,262.3923,97.6812,-1.0673e-06,-3.42e-06,0.0,0 STARLINK-6196,1 56487U 23064AR  23199.01775728 -.00000342  00000-0 -10673-5 0  9999,2 56487  69.9972  53.2794 0004061 262.3923  97.6812 15.69926021 11097,6737.246,91.724,361.847,356.375,0.0
56487.0,STARLINK-6196,PAYLOAD,2023-07-19 17:42:52,15.69931049,0.0003908,70.0001,48.4422,275.6076,84.4674,2.4644e-05,2.752e-05,0.0,0 STARLINK-6196,1 56487U 23064AR  23200.73811264  .00002752  00000-0  24644-4 0  9994,2 56487  70.0001  48.4422 0003908 275.6076  84.4674 15.69931049 11368,6737.231,91.724,361.729,356.463,0.0
56487.0,STARLINK-6196,PAYLOAD,2023-07-20 16:39:10,15.69917876,0.0003889,69.9985,45.7525,267.2473,92.8278,2.5237e-05,2.822e-05,0.0,0 STARLINK-6196,1 56487U 23064AR  23201.69386821  .00002822  00000-0  25237-4 0  9993,2 56487  69.9985  45.7525 0003889 267.2473  92.8278 15.69917876 11518,6737.269,91.725,361.754,356.514,0.0
56487.0,STARLINK-6196,PAYLOAD,2023-07-20 22:46:10,15.69925525,0.0003441,70.0008,45.0406,265.3014,94.7789,3.7116e-05,4.253e-05,0.0,0 STARLINK-6196,1 56487U 23064AR  23201.94873392  .00004253  00000-0  37116-4 0  9994,2 56487  70.0008  45.0406 0003441 265.3014  94.7789 15.69925525 11554,6737.247,91.724,361.43,356.794,0.0
56487.0,STARLINK-6196,PAYLOAD,2023-07-24 12:24:17,15.69922708,0.0004003,70.0002,35.0062,269.6379,90.4358,4.2541e-06,2.98e-06,0.0,0 STARLINK-6196,1 56487U 23064AR  23205.51687000  .00000298  00000-0  42541-5 0  9994,2 56487  70.0002  35.0062 0004003 269.6379  90.4358 15.69922708 11769,6737.255,91.724,361.817,356.423,0.0
56487.0,STARLINK-6196,PAYLOAD,2023-07-25 00:38:18,15.69929779,0.0004206,70.0003,33.5743,272.2596,87.8118,6.3738e-06,5.54e-06,0.0,0 STARLINK-6196,1 56487U 23064AR  23206.02660011  .00000554  00000-0  63738-5 0  9990,2 56487  70.0003  33.5743 0004206 272.2596  87.8118 15.69929779 11843,6737.235,91.724,361.934,356.266,0.0
56487.0,STARLINK-6196,PAYLOAD,2023-07-25 22:02:50,15.6991393,0.0004376,69.999,31.0646,268.6281,91.4413,-2.293e-05,-2.969e-05,0.0,0 STARLINK-6196,1 56487U 23064AR  23206.91863993 -.00002969  00000-0 -22930-4 0  9994,2 56487  69.9990  31.0646 0004376 268.6281  91.4413 15.69913930 11984,6737.28,91.725,362.093,356.197,0.0
56487.0,STARLINK-6196,PAYLOAD,2023-07-26 16:23:50,15.6993376,0.0005652,70.0002,28.9152,251.9013,108.1568,1.5646e-05,1.669e-05,0.0,0 STARLINK-6196,1 56487U 23064AR  23207.68322443  .00001669  00000-0  15646-4 0  9999,2 56487  70.0002  28.9152 0005652 251.9013 108.1568 15.69933760 12457,6737.224,91.724,362.896,355.281,0.0
56487.0,STARLINK-6196,PAYLOAD,2023-07-27 18:23:39,15.69921572,0.0004143,69.9998,25.8701,272.3886,87.6835,4.1101e-06,2.81e-06,0.0,0 STARLINK-6196,1 56487U 23064AR  23208.76642485  .00000281  00000-0  41101-5 0  9995,2 56487  69.9998  25.8701 0004143 272.3886  87.6835 15.69921572 12628,6737.258,91.724,361.915,356.332,0.0
56487.0,STARLINK-6196,PAYLOAD,2023-07-27 21:27:09,15.69931021,0.0004108,69.9991,25.5116,274.3519,85.7207,1.8254e-05,1.983e-05,0.0,0 STARLINK-6196,1 56487U 23064AR  23208.89385433  .00001983  00000-0  18254-4 0  9998,2 56487  69.9991  25.5116 0004108 274.3519  85.7207 15.69931021 12299,6737.231,91.724,361.864,356.329,0.0
56487.0,STARLINK-6196,PAYLOAD,2023-07-28 05:05:54,15.6991877,0.0003822,69.9969,24.6136,276.6069,83.4692,-1.3024e-06,-3.7e-06,0.0,0 STARLINK-6196,1 56487U 23064AR  23209.21243811 -.00000370  00000-0 -13024-5 0  9990,2 56487  69.9969  24.6136 0003822 276.6069  83.4692 15.69918770 12696,6737.266,91.724,361.706,356.556,0.0
56487.0,STARLINK-6196,PAYLOAD,2023-07-28 15:48:10,15.69930669,0.0004287,69.9997,23.3623,270.2141,89.8564,7.6525e-06,7.07e-06,0.0,0 STARLINK-6196,1 56487U 23064AR  23209.65845051  .00000707  00000-0  76525-5 0  9999,2 56487  69.9997  23.3623 0004287 270.2141  89.8564 15.69930669 12768,6737.232,91.724,361.986,356.209,0.0
56487.0,STARLINK-6196,PAYLOAD,2023-07-29 19:19:42,15.69930013,0.0003745,69.9984,20.137,270.9446,89.132,1.4398e-05,1.519e-05,0.0,0 STARLINK-6196,1 56487U 23064AR  23210.80535681  .00001519  00000-0  14398-4 0  9994,2 56487  69.9984  20.1370 0003745 270.9446  89.1320 15.69930013 12947,6737.234,91.724,361.622,356.576,0.0
56487.0,STARLINK-6196,PAYLOAD,2023-07-30 10:37:14,15.69918835,0.0004065,69.9985,18.3457,278.0578,82.0156,-6.8202e-06,-1.033e-05,0.0,0 STARLINK-6196,1 56487U 23064AR  23211.44252892 -.00001033  00000-0 -68202-5 0  9992,2 56487  69.9985  18.3457 0004065 278.0578  82.0156 15.69918835 13043,6737.266,91.724,361.87,356.393,0.0
56487.0,STARLINK-6196,PAYLOAD,2023-07-31 11:05:16,15.6992254,0.0003177,69.9976,15.4793,280.9591,79.1248,1.3168e-06,-5.4e-07,0.0,0 STARLINK-6196,1 56487U 23064AR  23212.46200034 -.00000054  00000-0  13168-5 0  9998,2 56487  69.9976  15.4793 0003177 280.9591  79.1248 15.69922540 13209,6737.256,91.724,361.261,356.98,0.0
56487.0,STARLINK-6196,PAYLOAD,2023-07-31 18:44:01,15.69932918,0.0003361,69.9997,14.5826,281.118,78.9638,1.3234e-05,1.379e-05,0.0,0 STARLINK-6196,1 56487U 23064AR  23212.78057458  .00001379  00000-0  13234-4 0  9996,2 56487  69.9997  14.5826 0003361 281.1180  78.9638 15.69932918 13256,6737.226,91.724,361.355,356.827,0.0
56487.0,STARLINK-6196,PAYLOAD,2023-08-01 14:36:48,15.69919456,0.000335,69.9987,12.2526,269.7378,90.3433,1.1478e-05,1.167e-05,0.0,0 STARLINK-6196,1 56487U 23064AR  23213.60889935  .00001167  00000-0  11478-4 0  9994,2 56487  69.9987  12.2526 0003350 269.7378  90.3433 15.69919456 13383,6737.264,91.724,361.386,356.872,0.0
56487.0,STARLINK-6196,PAYLOAD,2023-08-01 20:43:48,15.69929776,0.0003632,69.9994,11.5361,271.4155,88.6624,1.6386e-05,1.758e-05,0.0,0 STARLINK-6196,1 56487U 23064AR  23213.86376116  .00001758  00000-0  16386-4 0  9993,2 56487  69.9994  11.5361 0003632 271.4155  88.6624 15.69929776 13429,6737.235,91.724,361.547,356.653,0.0
56487.0,STARLINK-6196,PAYLOAD,2023-08-02 18:08:20,15.69926854,0.0003713,69.9978,9.0298,274.669,85.4081,4.8188e-06,3.67e-06,0.0,0 STARLINK-6196,1 56487U 23064AR  23214.75579740  .00000367  00000-0  48188-5 0  9991,2 56487  69.9978   9.0298 0003713 274.6690  85.4081 15.69926854 13562,6737.243,91.724,361.61,356.607,0.0
56487.0,STARLINK-6196,PAYLOAD,2023-08-03 10:57:37,15.69921316,0.0003485,69.9976,7.0574,269.075,91.0046,2.7054e-06,1.12e-06,0.0,0 STARLINK-6196,1 56487U 23064AR  23215.45668661  .00000112  00000-0  27054-5 0  9997,2 56487  69.9976   7.0574 0003485 269.0750  91.0046 15.69921316 13670,6737.259,91.724,361.472,356.776,0.0
56487.0,STARLINK-6196,PAYLOAD,2023-08-03 18:36:22,15.69929447,0.0003506,69.9975,6.1618,269.9409,90.1384,1.2249e-05,1.261e-05,0.0,0 STARLINK-6196,1 56487U 23064AR  23215.77526495  .00001261  00000-0  12249-4 0  9995,2 56487  69.9975   6.1618 0003506 269.9409  90.1384 15.69929447 13726,6737.236,91.724,361.463,356.739,0.0
56487.0,STARLINK-6196,PAYLOAD,2023-08-04 09:53:54,15.69912115,0.0003249,69.9999,4.3717,262.7512,97.3314,-8.9214e-06,-1.285e-05,0.0,0 STARLINK-6196,1 56487U 23064AR  23216.41243938 -.00001285  00000-0 -89214-5 0  9990,2 56487  69.9999   4.3717 0003249 262.7512  97.3314 15.69912115 13829,6737.285,91.725,361.339,356.961,0.0
56487.0,STARLINK-6196,PAYLOAD,2023-08-04 19:04:24,15.69929591,0.0003127,70.0005,3.296,256.4295,103.6552,1.8158e-05,1.972e-05,0.0,0 STARLINK-6196,1 56487U 23064AR  23216.79473217  .00001972  00000-0  18158-4 0  9995,2 56487  70.0005   3.2960 0003127 256.4295 103.6552 15.69929591 13888,6737.235,91.724,361.207,356.994,0.0
56487.0,STARLINK-6196,PAYLOAD,2023-08-05 19:32:27,15.69907612,0.0003577,70.0002,0.4306,273.7261,86.3525,-4.3098e-05,-5.388e-05,0.0,0 STARLINK-6196,1 56487U 23064AR  23217.81420562 -.00005388  00000-0 -43098-4 0  9992,2 56487  70.0002   0.4306 0003577 273.7261  86.3525 15.69907612 14048,6737.298,91.725,361.573,356.753,0.0
